{
  "type": "FeatureCollection",
  "features": [
    {
      "type": "Feature",
      "properties": {
        "norad_id": 41890,
        "name": "CYGFM07",
        "group": "weather",
        "lat": -8.996872673247033,
        "lon": -64.60343642479394,
        "alt_km": 409.9201130396441,
        "timestamp": "2025-12-23T20:42:36.715930+00:00",
        "meta_object_name": "CYGFM07",
        "meta_object_id": "2016-078G",
        "meta_epoch": "2025-12-23T06:52:12.582336",
        "meta_mean_motion": 15.50433306,
        "meta_eccentricity": 0.00096946,
        "meta_inclination": 34.9482,
        "meta_ra_of_asc_node": 312.2836,
        "meta_arg_of_pericenter": 304.5826,
        "meta_mean_anomaly": 55.3981,
        "meta_ephemeris_type": 0,
        "meta_classification_type": "U",
        "meta_norad_cat_id": 41890,
        "meta_element_set_no": 999,
        "meta_rev_at_epoch": 50159,
        "meta_bstar": 0.00038423067,
        "meta_mean_motion_dot": 0.00022616,
        "meta_mean_motion_ddot": 0,
        "tle_line1": "1 41890U 16078G   25357.28625674  .00022616  00000+0  38423-3 0  9995",
        "tle_line2": "2 41890  34.9482 312.2836 0009694 304.5826  55.3981 15.50433306501596"
      },
      "geometry": {
        "type": "Point",
        "coordinates": [
          -64.60343642479394,
          -8.996872673247033
        ]
      }
    },
    {
      "type": "Feature",
      "properties": {
        "norad_id": 41891,
        "name": "CYGFM03",
        "group": "weather",
        "lat": 3.012513180457809,
        "lon": 126.10337860793302,
        "alt_km": 417.6707917970607,
        "timestamp": "2025-12-23T20:42:36.715940+00:00",
        "meta_object_name": "CYGFM03",
        "meta_object_id": "2016-078H",
        "meta_epoch": "2025-12-23T04:30:19.896192",
        "meta_mean_motion": 15.50323541,
        "meta_eccentricity": 0.00094582,
        "meta_inclination": 34.9438,
        "meta_ra_of_asc_node": 314.8551,
        "meta_arg_of_pericenter": 291.3131,
        "meta_mean_anomaly": 68.6581,
        "meta_ephemeris_type": 0,
        "meta_classification_type": "U",
        "meta_norad_cat_id": 41891,
        "meta_element_set_no": 999,
        "meta_rev_at_epoch": 50155,
        "meta_bstar": 0.00038012472,
        "meta_mean_motion_dot": 0.00022283,
        "meta_mean_motion_ddot": 0,
        "tle_line1": "1 41891U 16078H   25357.18773028  .00022283  00000+0  38012-3 0  9996",
        "tle_line2": "2 41891  34.9438 314.8551 0009458 291.3131  68.6581 15.50323541501558"
      },
      "geometry": {
        "type": "Point",
        "coordinates": [
          126.10337860793302,
          3.012513180457809
        ]
      }
    },
    {
      "type": "Feature",
      "properties": {
        "norad_id": 43010,
        "name": "FENGYUN 3D",
        "group": "weather",
        "lat": -54.098290045128984,
        "lon": -23.02767464230234,
        "alt_km": 834.3045203262418,
        "timestamp": "2025-12-23T20:42:36.715951+00:00",
        "meta_object_name": "FENGYUN 3D",
        "meta_object_id": "2017-072A",
        "meta_epoch": "2025-12-23T07:26:15.702144",
        "meta_mean_motion": 14.19688251,
        "meta_eccentricity": 0.00014327,
        "meta_inclination": 98.9907,
        "meta_ra_of_asc_node": 323.7786,
        "meta_arg_of_pericenter": 151.7224,
        "meta_mean_anomaly": 208.403,
        "meta_ephemeris_type": 0,
        "meta_classification_type": "U",
        "meta_norad_cat_id": 43010,
        "meta_element_set_no": 999,
        "meta_rev_at_epoch": 42003,
        "meta_bstar": 0.00021290799,
        "meta_mean_motion_dot": 4.04e-06,
        "meta_mean_motion_ddot": 0,
        "tle_line1": "1 43010U 17072A   25357.30990396  .00000404  00000+0  21291-3 0  9991",
        "tle_line2": "2 43010  98.9907 323.7786 0001432 151.7224 208.4030 14.19688251420031"
      },
      "geometry": {
        "type": "Point",
        "coordinates": [
          -23.02767464230234,
          -54.098290045128984
        ]
      }
    },
    {
      "type": "Feature",
      "properties": {
        "norad_id": 43013,
        "name": "NOAA 20 (JPSS-1)",
        "group": "weather",
        "lat": 81.20139931144935,
        "lon": -160.8732043933212,
        "alt_km": 818.064414348295,
        "timestamp": "2025-12-23T20:42:36.715962+00:00",
        "meta_object_name": "NOAA 20 (JPSS-1)",
        "meta_object_id": "2017-073A",
        "meta_epoch": "2025-12-23T03:22:04.548288",
        "meta_mean_motion": 14.1952836,
        "meta_eccentricity": 0.00021062,
        "meta_inclination": 98.7613,
        "meta_ra_of_asc_node": 293.3239,
        "meta_arg_of_pericenter": 72.3497,
        "meta_mean_anomaly": 287.7909,
        "meta_ephemeris_type": 0,
        "meta_classification_type": "U",
        "meta_norad_cat_id": 43013,
        "meta_element_set_no": 999,
        "meta_rev_at_epoch": 41949,
        "meta_bstar": 6.3345782e-05,
        "meta_mean_motion_dot": 8.9e-07,
        "meta_mean_motion_ddot": 0,
        "tle_line1": "1 43013U 17073A   25357.14033042  .00000089  00000+0  63346-4 0  9990",
        "tle_line2": "2 43013  98.7613 293.3239 0002106  72.3497 287.7909 14.19528360419497"
      },
      "geometry": {
        "type": "Point",
        "coordinates": [
          -160.8732043933212,
          81.20139931144935
        ]
      }
    },
    {
      "type": "Feature",
      "properties": {
        "norad_id": 43226,
        "name": "GOES 17",
        "group": "weather",
        "lat": -0.36029766576038835,
        "lon": -46.19018013988094,
        "alt_km": 35775.42908578557,
        "timestamp": "2025-12-23T20:42:36.715975+00:00",
        "meta_object_name": "GOES 17",
        "meta_object_id": "2018-022A",
        "meta_epoch": "2025-12-23T04:08:45.536928",
        "meta_mean_motion": 1.00272653,
        "meta_eccentricity": 0.00029971,
        "meta_inclination": 0.4829,
        "meta_ra_of_asc_node": 89.0891,
        "meta_arg_of_pericenter": 190.5083,
        "meta_mean_anomaly": 145.0542,
        "meta_ephemeris_type": 0,
        "meta_classification_type": "U",
        "meta_norad_cat_id": 43226,
        "meta_element_set_no": 999,
        "meta_rev_at_epoch": 2865,
        "meta_bstar": 0,
        "meta_mean_motion_dot": -1.62e-06,
        "meta_mean_motion_ddot": 0,
        "tle_line1": "1 43226U 18022A   25357.17274927 -.00000162  00000+0  00000+0 0  9999",
        "tle_line2": "2 43226   0.4829  89.0891 0002997 190.5083 145.0542  1.00272653 28658"
      },
      "geometry": {
        "type": "Point",
        "coordinates": [
          -46.19018013988094,
          -0.36029766576038835
        ]
      }
    },
    {
      "type": "Feature",
      "properties": {
        "norad_id": 43491,
        "name": "FENGYUN 2H",
        "group": "weather",
        "lat": 1.7266921062475546,
        "lon": 122.58714984924016,
        "alt_km": 35791.86480720817,
        "timestamp": "2025-12-23T20:42:36.715997+00:00",
        "meta_object_name": "FENGYUN 2H",
        "meta_object_id": "2018-050A",
        "meta_epoch": "2025-12-23T01:31:34.253760",
        "meta_mean_motion": 1.00270908,
        "meta_eccentricity": 0.0002368,
        "meta_inclination": 2.5759,
        "meta_ra_of_asc_node": 81.2213,
        "meta_arg_of_pericenter": 166.1464,
        "meta_mean_anomaly": 306.7296,
        "meta_ephemeris_type": 0,
        "meta_classification_type": "U",
        "meta_norad_cat_id": 43491,
        "meta_element_set_no": 999,
        "meta_rev_at_epoch": 2767,
        "meta_bstar": 0,
        "meta_mean_motion_dot": -1.1e-06,
        "meta_mean_motion_ddot": 0,
        "tle_line1": "1 43491U 18050A   25357.06359090 -.00000110  00000+0  00000+0 0  9990",
        "tle_line2": "2 43491   2.5759  81.2213 0002368 166.1464 306.7296  1.00270908 27677"
      },
      "geometry": {
        "type": "Point",
        "coordinates": [
          122.58714984924016,
          1.7266921062475546
        ]
      }
    },
    {
      "type": "Feature",
      "properties": {
        "norad_id": 43689,
        "name": "METOP-C",
        "group": "weather",
        "lat": -49.26823495314847,
        "lon": 65.6933151902899,
        "alt_km": 826.961556282763,
        "timestamp": "2025-12-23T20:42:36.716009+00:00",
        "meta_object_name": "METOP-C",
        "meta_object_id": "2018-087A",
        "meta_epoch": "2025-12-23T04:03:07.029504",
        "meta_mean_motion": 14.21488268,
        "meta_eccentricity": 7.341e-05,
        "meta_inclination": 98.6913,
        "meta_ra_of_asc_node": 54.7779,
        "meta_arg_of_pericenter": 20.2587,
        "meta_mean_anomaly": 339.862,
        "meta_ephemeris_type": 0,
        "meta_classification_type": "U",
        "meta_norad_cat_id": 43689,
        "meta_element_set_no": 999,
        "meta_rev_at_epoch": 36982,
        "meta_bstar": 8.2308841e-05,
        "meta_mean_motion_dot": 1.36e-06,
        "meta_mean_motion_ddot": 0,
        "tle_line1": "1 43689U 18087A   25357.16883136  .00000136  00000+0  82309-4 0  9997",
        "tle_line2": "2 43689  98.6913  54.7779 0000734  20.2587 339.8620 14.21488268369828"
      },
      "geometry": {
        "type": "Point",
        "coordinates": [
          65.6933151902899,
          -49.26823495314847
        ]
      }
    }
  ]
}